      2.10          N: GNSS NAV DATA                        RINEX VERSION / TYPE
fic2rin                                 10/25/2024 00:59:02 PGM / RUN BY / DATE
                                                            END OF HEADER
12 24 10 24 22  0  0.0 -.547430478036D-03 -.261479726760D-11  .000000000000D+00
     .400000000000D+02  .298750000000D+02  .472269671927D-08  .221426893390D+01
     .134296715260D-05  .877550092991D-02  .672787427902D-05  .515357297707D+04
     .424800000000D+06  .633299350739D-07 -.263659518176D+01 -.128522515297D-06
     .961741709957D+00  .245312500000D+03  .146553107478D+01 -.791604402072D-08
    -.167506977338D-09  .100000000000D+01  .233700000000D+04  .000000000000D+00
     .240000000000D+01  .000000000000D+00 -.125728547573D-07  .400000000000D+02
     .417600000000D+06  .400000000000D+01
6  24 10 24 22  0  0.0 -.628987327218D-04 -.280806489172D-10  .000000000000D+00
     .320000000000D+02  .605625000000D+02  .372372653673D-08 -.244780380863D+01
     .311248004436D-05  .318166613579D-02  .629015266895D-05  .515372138786D+04
     .424800000000D+06  .391155481339D-07 -.593729878478D+00  .409781932831D-07
     .989594336005D+00  .275906250000D+03 -.773025984321D+00 -.779532470656D-08
     .428589281035D-11  .100000000000D+01  .233700000000D+04  .000000000000D+00
     .240000000000D+01  .000000000000D+00  .372529029846D-08  .320000000000D+02
     .417600000000D+06  .400000000000D+01
5  24 10 24 22  0  0.0 -.190845690668D-03 -.125055521494D-11  .000000000000D+00
     .930000000000D+02 -.228125000000D+02  .420196074282D-08 -.236751329803D+00
    -.107847154140D-05  .576641864609D-02  .404752790928D-05  .515369123459D+04
     .424800000000D+06 -.104308128357D-06  .388326893545D+00  .117346644402D-06
     .973708094576D+00  .308593750000D+03  .133549444160D+01 -.820427031222D-08
     .173221501085D-09  .100000000000D+01  .233700000000D+04  .000000000000D+00
     .240000000000D+01  .000000000000D+00 -.107102096081D-07  .930000000000D+02
     .417600000000D+06  .400000000000D+01
7  24 10 24 22  0  0.0 -.249152071774D-04  .306954461848D-11  .000000000000D+00
     .104000000000D+03 -.503125000000D+01  .475448375762D-08  .293284352443D+01
    -.407919287682D-06  .187938456656D-01  .930204987526D-05  .515359811592D+04
     .424800000000D+06  .633299350739D-07  .253096222675D+01 -.230967998505D-06
     .950468979648D+00  .194343750000D+03 -.209672864935D+01 -.768710591310D-08
     .290012080167D-09  .100000000000D+01  .233700000000D+04  .000000000000D+00
     .240000000000D+01  .000000000000D+00 -.107102096081D-07  .104000000000D+03
     .417600000000D+06  .400000000000D+01
31 24 10 24 22  0  0.0 -.222882255912D-03  .568434188608D-12  .000000000000D+00
     .420000000000D+02 -.104062500000D+02  .477234164433D-08  .187579315804D+01
    -.510364770889D-06  .106863359688D-01  .963546335697D-05  .515358744621D+04
     .424800000000D+06 -.311061739922D-06  .255310898221D+01 -.670552253723D-07
     .954418040691D+00  .193750000000D+03  .757584240310D+00 -.801854829044D-08
     .252153360342D-09  .100000000000D+01  .233700000000D+04  .000000000000D+00
     .240000000000D+01  .000000000000D+00 -.130385160446D-07  .420000000000D+02
     .417600000000D+06  .400000000000D+01
32 24 10 24 22  0  0.0 -.582723878324D-03  .466116034659D-11  .000000000000D+00
     .690000000000D+02 -.735312500000D+02  .449947313540D-08  .146012599771D+00
    -.393949449062D-05  .793923193123D-02  .733882188797D-05  .515374384499D+04
     .424800000000D+06 -.912696123123D-07  .147328927022D+01  .124797224998D-06
     .962724698742D+00  .242656250000D+03 -.213419338010D+01 -.813033866124D-08
     .992898501065D-10  .100000000000D+01  .233700000000D+04  .000000000000D+00
     .240000000000D+01  .000000000000D+00  .931322574615D-09  .690000000000D+02
     .417600000000D+06  .400000000000D+01
16 24 10 24 22  0  0.0 -.146201346070D-03  .989075488178D-11  .000000000000D+00
     .370000000000D+02  .285625000000D+02  .492127641949D-08  .429902093479D+00
     .177323818207D-05  .141044927295D-01  .661425292492D-05  .515363492203D+04
     .424800000000D+06 -.670552253723D-07 -.261891320107D+01  .122934579849D-06
     .961131439051D+00  .251375000000D+03  .849323360538D+00 -.838284917932D-08
    -.248938940735D-09  .100000000000D+01  .233700000000D+04  .000000000000D+00
     .240000000000D+01  .000000000000D+00 -.102445483208D-07  .370000000000D+02
     .417600000000D+06  .400000000000D+01
9  24 10 24 22  0  0.0  .413234345615D-03  .167119651451D-10  .000000000000D+00
     .570000000000D+02 -.788437500000D+02  .447304346307D-08 -.270276192488D-01
    -.433437526226D-05  .318841228727D-02  .768713653088D-05  .515357693291D+04
     .424800000000D+06 -.316649675369D-07  .145807098109D+01 -.521540641785D-07
     .959396328971D+00  .228156250000D+03  .199833657122D+01 -.806819321549D-08
     .105718689322D-09  .100000000000D+01  .233700000000D+04  .000000000000D+00
     .240000000000D+01  .000000000000D+00  .465661287308D-09  .570000000000D+02
     .417600000000D+06  .400000000000D+01
11 24 10 24 22  0  0.0 -.746293459088D-03 -.250111042988D-11  .000000000000D+00
     .400000000000D+01  .605312500000D+02  .424589114412D-08 -.143555102499D+01
     .308267772198D-05  .172948953696D-02  .632368028164D-05  .515356538963D+04
     .424800000000D+06  .111758708954D-06 -.564018277077D+00 -.931322574615D-07
     .966239810006D+00  .264531250000D+03 -.244162499125D+01 -.802747723379D-08
    -.128576784311D-10  .100000000000D+01  .233700000000D+04  .000000000000D+00
     .240000000000D+01  .000000000000D+00 -.884756445885D-08  .260000000000D+03
     .417600000000D+06  .400000000000D+01
8  24 10 24 22  0  0.0  .394218135625D-03  .111413100967D-10  .000000000000D+00
     .130000000000D+03  .245625000000D+02  .476734143605D-08 -.545092587809D+00
     .118836760521D-05  .983012106735D-02  .708550214767D-05  .515370096779D+04
     .424800000000D+06  .189989805222D-06 -.169508985667D+01  .134110450745D-06
     .950635532871D+00  .238406250000D+03  .374165330128D+00 -.825462955274D-08
    -.441446959466D-09  .100000000000D+01  .233700000000D+04  .000000000000D+00
     .240000000000D+01  .000000000000D+00  .465661287308D-08  .130000000000D+03
     .417600000000D+06  .400000000000D+01
30 24 10 24 22  0  0.0 -.295808073133D-03  .761701812735D-11  .000000000000D+00
     .400000000000D+02 -.584375000000D+01  .520093092536D-08  .280918004412D+01
    -.249594449997D-06  .713103625458D-02  .934489071369D-05  .515378639603D+04
     .424800000000D+06 -.279396772385D-07  .252932746261D+01 -.707805156708D-07
     .935626764336D+00  .188843750000D+03 -.246108928014D+01 -.808140805165D-08
     .336442585613D-09  .100000000000D+01  .233700000000D+04  .000000000000D+00
     .240000000000D+01  .000000000000D+00  .372529029846D-08  .400000000000D+02
     .417600000000D+06  .400000000000D+01
26 24 10 24 22  0  0.0  .474047847092D-04 -.966338120634D-11  .000000000000D+00
     .260000000000D+02  .312500000000D+02  .564059209616D-08  .129917406388D+01
     .188499689102D-05  .942156976089D-02  .681355595589D-05  .515371524620D+04
     .424800000000D+06 -.204890966415D-07 -.279011262881D+01  .210478901863D-06
     .930614963529D+00  .233625000000D+03  .568089981857D+00 -.863500253966D-08
    -.115719105880D-09  .100000000000D+01  .233700000000D+04  .000000000000D+00
     .240000000000D+01  .000000000000D+00  .651925802231D-08  .260000000000D+02
     .417600000000D+06  .400000000000D+01
21 24 10 24 22  0  0.0  .990424305201D-04 -.795807864051D-12  .000000000000D+00
     .180000000000D+02  .399062500000D+02  .434946688704D-08 -.743118821493D+00
     .206939876080D-05  .254816379165D-01  .671111047268D-05  .515364079285D+04
     .424800000000D+06 -.217929482460D-06 -.703457775257D+00 -.486150383949D-06
     .961121919843D+00  .256000000000D+03 -.502664731924D+00 -.822069956799D-08
     .123933733766D-09  .100000000000D+01  .233700000000D+04  .000000000000D+00
     .240000000000D+01  .000000000000D+00 -.102445483208D-07  .180000000000D+02
     .417600000000D+06  .400000000000D+01
15 24 10 24 22  0  0.0  .219647306949D-03  .443378667114D-11  .000000000000D+00
     .320000000000D+02 -.852812500000D+02  .497127850228D-08 -.155648819654D+01
    -.399909913540D-05  .161797658075D-01  .627152621746D-05  .515372004890D+04
     .424800000000D+06  .262632966042D-06  .132627690199D+01  .316649675369D-06
     .936535423717D+00  .239406250000D+03  .136999144699D+01 -.827820196320D-08
     .103218585183D-09  .100000000000D+01  .233700000000D+04  .000000000000D+00
     .240000000000D+01  .000000000000D+00 -.102445483208D-07  .320000000000D+02
     .417600000000D+06  .400000000000D+01
13 24 10 24 22  0  0.0  .683004036546D-03  .170530256582D-11  .000000000000D+00
     .430000000000D+02 -.825000000000D+02  .427232081645D-08 -.863903415079D+00
    -.404939055443D-05  .874062627554D-02  .861845910549D-05  .515369257164D+04
     .424800000000D+06  .633299350739D-07  .162630842689D+01  .169500708580D-06
     .971997068517D+00  .219687500000D+03  .971569519005D+00 -.795461705602D-08
     .142505935944D-09  .100000000000D+01  .233700000000D+04  .000000000000D+00
     .240000000000D+01  .000000000000D+00 -.116415321827D-07  .430000000000D+02
     .417600000000D+06  .400000000000D+01
19 24 10 24 22  0  0.0  .554558821023D-03  .466116034659D-11  .000000000000D+00
     .310000000000D+02  .430000000000D+02  .439589739249D-08  .127183485771D+01
     .220537185669D-05  .998783041723D-02  .752694904804D-05  .515374745560D+04
     .424800000000D+06  .188127160072D-06 -.155370593701D+01  .651925802231D-07
     .965608272660D+00  .233218750000D+03  .266922487170D+01 -.794104506212D-08
    -.506449667090D-09  .100000000000D+01  .233700000000D+04  .000000000000D+00
     .240000000000D+01  .000000000000D+00 -.153668224812D-07  .310000000000D+02
     .417600000000D+06  .400000000000D+01
